[{"OBJECT_NAME":"QIANFAN-26","OBJECT_ID":"2024-185H","EPOCH":"2026-03-09T23:12:51.629472","MEAN_MOTION":13.77863596,"ECCENTRICITY":0.00078495,"INCLINATION":88.9749,"RA_OF_ASC_NODE":70.3172,"ARG_OF_PERICENTER":102.881,"MEAN_ANOMALY":257.3233,"EPHEMERIS_TYPE":0,"CLASSIFICATION_TYPE":"U","NORAD_CAT_ID":61559,"ELEMENT_SET_NO":999,"REV_AT_EPOCH":8068,"BSTAR":0.00026503001,"MEAN_MOTION_DOT":2.78e-6,"MEAN_MOTION_DDOT":0},{"OBJECT_NAME":"CZ-4B DEB","OBJECT_ID":"2002-024H","EPOCH":"2026-03-09T22:22:50.809728","MEAN_MOTION":14.05056145,"ECCENTRICITY":0.01276217,"INCLINATION":99.0686,"RA_OF_ASC_NODE":120.3962,"ARG_OF_PERICENTER":273.5464,"MEAN_ANOMALY":85.1115,"EPHEMERIS_TYPE":0,"CLASSIFICATION_TYPE":"U","NORAD_CAT_ID":34223,"ELEMENT_SET_NO":999,"REV_AT_EPOCH":19740,"BSTAR":0.00045794059,"MEAN_MOTION_DOT":7.48e-6,"MEAN_MOTION_DDOT":0}]
